LEMUR-1                 
1 40044U 14033AL  26154.95438735  .00002840  00000+0  33051-3 0  9993
2 40044  97.7867 305.0553 0049645 120.8485 239.7628 14.85188536643509
LEMUR-2-GREENBERG       
1 42837U 17042N   26155.53919397  .00017438  00000+0  58482-3 0  9995
2 42837  97.3815 336.2266 0009696  56.8550 303.3620 15.30914916486459
LEMUR-2-ANDIS           
1 42838U 17042P   26155.07525170  .00023518  00000+0  70843-3 0  9998
2 42838  97.3677 335.9049 0009265  58.5132 301.7015 15.34295092486448
LEMUR-2-MONSON          
1 42839U 17042Q   26155.06224443  .00016668  00000+0  61840-3 0  9992
2 42839  97.4073 335.7437 0007407  50.3120 309.8772 15.27642419486161
LEMUR-2-FURIAUS         
1 42840U 17042R   26155.06610548  .00019261  00000+0  66840-3 0  9996
2 42840  97.3769 333.7410 0008623 109.3571 250.8603 15.29794594486206
LEMUR-2-PETERG          
1 42841U 17042S   26155.31226375  .00028037  00000+0  87019-3 0  9998
2 42841  97.3988 340.3274 0004272  43.6943 316.4637 15.33341515486461
LEMUR-2-DEMBITZ         
1 42842U 17042T   26155.74057490  .00017422  00000+0  60308-3 0  9994
2 42842  97.3822 337.4241 0007715  69.0521 291.1544 15.29903722486442
LEMUR-2-ZACHARY         
1 42845U 17042W   26155.59886644  .00044991  00000+0  82559-3 0  9994
2 42845  97.3612 346.9776 0003740  74.8050 285.3614 15.49134625487258
LEMUR-2-KADI            
1 43184U 18014E   26155.00085063  .05670531  25233-5  13547-2 0  9994
2 43184  97.4308  86.5413 0010751 218.5886 141.4640 16.29437538459008
LEMUR-2-AMANDA-SVANTE   
1 48269U 21034B   26155.18006877  .00036252  00000+0  11185-2 0  9990
2 48269  97.5764 233.1304 0000868 273.8548  86.2594 15.33486404279060
LEMUR-2-SPECIAL-K       
1 48273U 21034F   26155.47067899  .00150379  00000+0  17681-2 0  9992
2 48273  97.5658 241.4438 0002646 237.6547 122.4454 15.60930605279706
LEMUR-2-EMBRIONOVIS     
1 56970U 23084AQ  26155.18425658  .00014838  00000+0  40876-3 0  9993
2 56970  97.6283 298.8891 0008690   9.7326 350.4085 15.37210087165684
LEMUR-2-DEVERILL-M-T    
1 57391U 23100F   26155.04002856  .00028179  00000+0  72838-3 0  9992
2 57391  99.4476 190.0097 0007506  90.1093 270.1006 15.39072057159226
LEMUR-2-BASS            
1 58259U 23174D   26155.04443058  .00019056  00000+0  43878-3 0  9996
2 58259  97.3846 239.5780 0006708 205.8379 154.2535 15.42640730143338
LEMUR-2-JK0903EM1407    
1 58336U 23174CJ  26154.21096787  .00030393  00000+0  52485-3 0  9994
2 58336  97.3911 244.2978 0005853 157.9931 202.1574 15.50932470143565
LEMUR-2-MJR092620       
1 58340U 23174CN  26154.23035723  .00022083  00000+0  47992-3 0  9998
2 58340  97.3972 244.0089 0006697 158.4344 201.7188 15.44335090143495
LEMUR-2-NIMBUS2000      
1 58899U 24022A   26154.56154556  .00018293  00000+0  46643-3 0  9992
2 58899  97.4115   4.3959 0009618 158.4681 201.6971 15.39536048130177
LEMUR-2-VALHALLA        
1 58900U 24022B   26155.07507511  .00018079  00000+0  46514-3 0  9994
2 58900  97.4114   4.9130 0010284 153.0706 207.1075 15.39255789130251
LEMUR-2-OBA-NI-JESU     
1 58902U 24022D   26155.08441717  .00781493  29340-3  14139-2 0  9998
2 58902  97.3762  19.1765 0004246 174.1570 185.9759 16.01587691131227
LEMUR-2-CAEL            
1 58903U 24022E   26155.09585221  .00019089  00000+0  47114-3 0  9992
2 58903  97.4097   5.8472 0008921 136.4150 223.7802 15.40526305130323
LEMUR-2-JOHNNYTRUONG    
1 59146U 24043BA  26153.71674366  .00041716  00000+0  52884-3 0  9993
2 59146  97.5373 304.5368 0004267 221.4985 138.5947 15.59343752125784
LEMUR-2-TOMATOKECHUP    
1 60471U 24149D   26154.23011049  .00012306  00000+0  35632-3 0  9999
2 60471  97.3801 236.2448 0000172 277.6232  82.4992 15.35726512100020
LEMUR-2-STELLA          
1 60533U 24149BT  26154.77678173  .00013306  00000+0  78877-3 0  9993
2 60533  97.6744 237.1777 0001930 107.4795 252.6646 15.11502384 98475
LEMUR-2-MARHISYAM       
1 60536U 24149BW  26154.22249308  .00012853  00000+0  77357-3 0  9998
2 60536  97.6883 237.0548 0003024 140.8634 219.2814 15.10956429 98373
LEMUR-2-AHMED-ASRAR     
1 60576U 24149DN  26154.46840119  .00013530  00000+0  78265-3 0  9997
2 60576  97.6997 239.3410 0002863  73.6698 286.4847 15.12381793 98492
LEMUR-2-LLOYD           
1 60577U 24149DP  26154.84739074  .00012459  00000+0  79199-3 0  9993
2 60577  97.6741 235.9718 0004089 177.6950 182.4298 15.08964794 98387
LEMUR-2-SQUIRRELCOMM    
1 60578U 24149DQ  26154.17959748  .00007706  00000+0  51868-3 0  9994
2 60578  97.6702 235.1362 0006694 100.1795 260.0188 15.06978397 98297
LEMUR-2-SIERRINI        
1 60579U 24149DR  26154.17684562  .00013311  00000+0  80803-3 0  9994
2 60579  97.6846 236.7107 0004638 210.6657 149.4302 15.10632468 98346
LEMUR-2-WILSON          
1 62694U 25009CP  26154.17459052  .00003250  00000+0  30154-3 0  9999
2 62694  97.7030 232.8857 0004987  88.4180 271.7612 14.95104153 75266
LEMUR-2-STAR-FOX        
1 62696U 25009CR  26155.03887040  .00009170  00000+0  69849-3 0  9999
2 62696  97.6940 236.7443 0002455 148.7165 211.4206 15.02290827 75580
